[{"OBJECT_NAME":"STARLINK-36992","OBJECT_ID":"2026-049H","EPOCH":"2026-04-05T05:55:59.110752","MEAN_MOTION":15.80887344,"ECCENTRICITY":9.111e-5,"INCLINATION":97.2851,"RA_OF_ASC_NODE":115.8759,"ARG_OF_PERICENTER":62.0511,"MEAN_ANOMALY":298.0849,"EPHEMERIS_TYPE":0,"CLASSIFICATION_TYPE":"U","NORAD_CAT_ID":68149,"ELEMENT_SET_NO":999,"REV_AT_EPOCH":360,"BSTAR":0.0012476478,"MEAN_MOTION_DOT":0.00246521,"MEAN_MOTION_DDOT":0},{"OBJECT_NAME":"STARLINK-37060","OBJECT_ID":"2026-049J","EPOCH":"2026-04-05T07:26:03.283872","MEAN_MOTION":15.80917717,"ECCENTRICITY":0.0001381,"INCLINATION":97.285,"RA_OF_ASC_NODE":115.9442,"ARG_OF_PERICENTER":100.0808,"MEAN_ANOMALY":260.0616,"EPHEMERIS_TYPE":0,"CLASSIFICATION_TYPE":"U","NORAD_CAT_ID":68150,"ELEMENT_SET_NO":999,"REV_AT_EPOCH":361,"BSTAR":0.0013996435,"MEAN_MOTION_DOT":0.00277964,"MEAN_MOTION_DDOT":0},{"OBJECT_NAME":"STARLINK-37073","OBJECT_ID":"2026-049K","EPOCH":"2026-04-05T07:46:58.979136","MEAN_MOTION":15.75244708,"ECCENTRICITY":0.00014105,"INCLINATION":97.2847,"RA_OF_ASC_NODE":115.9239,"ARG_OF_PERICENTER":115.7659,"MEAN_ANOMALY":244.3752,"EPHEMERIS_TYPE":0,"CLASSIFICATION_TYPE":"U","NORAD_CAT_ID":68151,"ELEMENT_SET_NO":999,"REV_AT_EPOCH":361,"BSTAR":0.0012934674,"MEAN_MOTION_DOT":0.00197801,"MEAN_MOTION_DDOT":0},{"OBJECT_NAME":"STARLINK-37049","OBJECT_ID":"2026-049L","EPOCH":"2026-04-05T06:00:02.000160","MEAN_MOTION":15.75219936,"ECCENTRICITY":0.00013674,"INCLINATION":97.2846,"RA_OF_ASC_NODE":115.8666,"ARG_OF_PERICENTER":105.996,"MEAN_ANOMALY":239.2611,"EPHEMERIS_TYPE":0,"CLASSIFICATION_TYPE":"U","NORAD_CAT_ID":68152,"ELEMENT_SET_NO":999,"REV_AT_EPOCH":489,"BSTAR":1.3833451e-5,"MEAN_MOTION_DOT":1.937e-5,"MEAN_MOTION_DDOT":0},{"OBJECT_NAME":"STARLINK-37072","OBJECT_ID":"2026-049M","EPOCH":"2026-04-05T04:49:06.361248","MEAN_MOTION":15.75226109,"ECCENTRICITY":0.00010455,"INCLINATION":97.2844,"RA_OF_ASC_NODE":115.786,"ARG_OF_PERICENTER":88.8752,"MEAN_ANOMALY":271.2633,"EPHEMERIS_TYPE":0,"CLASSIFICATION_TYPE":"U","NORAD_CAT_ID":68153,"ELEMENT_SET_NO":999,"REV_AT_EPOCH":359,"BSTAR":0.0013715433,"MEAN_MOTION_DOT":0.00209879,"MEAN_MOTION_DDOT":0},{"OBJECT_NAME":"STARLINK-36241","OBJECT_ID":"2026-049N","EPOCH":"2026-04-05T05:06:22.866624","MEAN_MOTION":15.75219791,"ECCENTRICITY":0.0001528,"INCLINATION":97.2844,"RA_OF_ASC_NODE":115.7686,"ARG_OF_PERICENTER":102.204,"MEAN_ANOMALY":257.9397,"EPHEMERIS_TYPE":0,"CLASSIFICATION_TYPE":"U","NORAD_CAT_ID":68154,"ELEMENT_SET_NO":999,"REV_AT_EPOCH":359,"BSTAR":0.0011286152,"MEAN_MOTION_DOT":0.00171863,"MEAN_MOTION_DDOT":0},{"OBJECT_NAME":"STARLINK-37048","OBJECT_ID":"2026-049P","EPOCH":"2026-04-05T07:18:29.041056","MEAN_MOTION":15.80873359,"ECCENTRICITY":0.00014308,"INCLINATION":97.2856,"RA_OF_ASC_NODE":115.9507,"ARG_OF_PERICENTER":89.7445,"MEAN_ANOMALY":270.3988,"EPHEMERIS_TYPE":0,"CLASSIFICATION_TYPE":"U","NORAD_CAT_ID":68155,"ELEMENT_SET_NO":999,"REV_AT_EPOCH":361,"BSTAR":0.00090824302,"MEAN_MOTION_DOT":0.00177888,"MEAN_MOTION_DDOT":0},{"OBJECT_NAME":"STARLINK-36313","OBJECT_ID":"2026-049Q","EPOCH":"2026-04-05T07:19:41.946240","MEAN_MOTION":15.80115314,"ECCENTRICITY":0.00014612,"INCLINATION":97.2856,"RA_OF_ASC_NODE":115.9495,"ARG_OF_PERICENTER":99.5352,"MEAN_ANOMALY":260.6081,"EPHEMERIS_TYPE":0,"CLASSIFICATION_TYPE":"U","NORAD_CAT_ID":68156,"ELEMENT_SET_NO":999,"REV_AT_EPOCH":361,"BSTAR":-0.003801219,"MEAN_MOTION_DOT":-0.00654821,"MEAN_MOTION_DDOT":0},{"OBJECT_NAME":"STARLINK-37064","OBJECT_ID":"2026-049R","EPOCH":"2026-04-05T02:48:16.097472","MEAN_MOTION":15.80872289,"ECCENTRICITY":7.974e-5,"INCLINATION":97.2852,"RA_OF_ASC_NODE":115.7462,"ARG_OF_PERICENTER":77.2772,"MEAN_ANOMALY":282.8585,"EPHEMERIS_TYPE":0,"CLASSIFICATION_TYPE":"U","NORAD_CAT_ID":68157,"ELEMENT_SET_NO":999,"REV_AT_EPOCH":358,"BSTAR":0.001469209,"MEAN_MOTION_DOT":0.0029165,"MEAN_MOTION_DDOT":0},{"OBJECT_NAME":"STARLINK-37069","OBJECT_ID":"2026-049S","EPOCH":"2026-04-05T05:01:18.320448","MEAN_MOTION":15.75185625,"ECCENTRICITY":0.00017326,"INCLINATION":97.2845,"RA_OF_ASC_NODE":115.7735,"ARG_OF_PERICENTER":110.7654,"MEAN_ANOMALY":249.3797,"EPHEMERIS_TYPE":0,"CLASSIFICATION_TYPE":"U","NORAD_CAT_ID":68158,"ELEMENT_SET_NO":999,"REV_AT_EPOCH":359,"BSTAR":0.00070007086,"MEAN_MOTION_DOT":0.00105572,"MEAN_MOTION_DDOT":0},{"OBJECT_NAME":"STARLINK-37053","OBJECT_ID":"2026-049T","EPOCH":"2026-04-05T06:00:02.000160","MEAN_MOTION":15.75193817,"ECCENTRICITY":0.00012027,"INCLINATION":97.2848,"RA_OF_ASC_NODE":115.8818,"ARG_OF_PERICENTER":113.8667,"MEAN_ANOMALY":267.3967,"EPHEMERIS_TYPE":0,"CLASSIFICATION_TYPE":"U","NORAD_CAT_ID":68159,"ELEMENT_SET_NO":999,"REV_AT_EPOCH":489,"BSTAR":0.00029680316,"MEAN_MOTION_DOT":0.00044378,"MEAN_MOTION_DDOT":0},{"OBJECT_NAME":"STARLINK-36306","OBJECT_ID":"2026-049U","EPOCH":"2026-04-05T04:55:42.813696","MEAN_MOTION":15.75184749,"ECCENTRICITY":0.00010523,"INCLINATION":97.2846,"RA_OF_ASC_NODE":115.7792,"ARG_OF_PERICENTER":108.5068,"MEAN_ANOMALY":251.6311,"EPHEMERIS_TYPE":0,"CLASSIFICATION_TYPE":"U","NORAD_CAT_ID":68160,"ELEMENT_SET_NO":999,"REV_AT_EPOCH":359,"BSTAR":0.00080793167,"MEAN_MOTION_DOT":0.00122086,"MEAN_MOTION_DDOT":0},{"OBJECT_NAME":"STARLINK-37057","OBJECT_ID":"2026-049V","EPOCH":"2026-04-05T06:00:02.000160","MEAN_MOTION":15.75195724,"ECCENTRICITY":0.00013568,"INCLINATION":97.2849,"RA_OF_ASC_NODE":115.8868,"ARG_OF_PERICENTER":94.636,"MEAN_ANOMALY":298.6707,"EPHEMERIS_TYPE":0,"CLASSIFICATION_TYPE":"U","NORAD_CAT_ID":68161,"ELEMENT_SET_NO":999,"REV_AT_EPOCH":489,"BSTAR":1.3041905e-5,"MEAN_MOTION_DOT":1.816e-5,"MEAN_MOTION_DDOT":0},{"OBJECT_NAME":"STARLINK-37013","OBJECT_ID":"2026-049W","EPOCH":"2026-04-05T05:38:40.668288","MEAN_MOTION":15.80852421,"ECCENTRICITY":0.00016024,"INCLINATION":97.286,"RA_OF_ASC_NODE":115.8912,"ARG_OF_PERICENTER":105.7719,"MEAN_ANOMALY":254.3726,"EPHEMERIS_TYPE":0,"CLASSIFICATION_TYPE":"U","NORAD_CAT_ID":68162,"ELEMENT_SET_NO":999,"REV_AT_EPOCH":360,"BSTAR":0.00090665593,"MEAN_MOTION_DOT":0.00177398,"MEAN_MOTION_DDOT":0},{"OBJECT_NAME":"STARLINK-36958","OBJECT_ID":"2026-049X","EPOCH":"2026-04-05T06:00:02.000160","MEAN_MOTION":15.75216946,"ECCENTRICITY":0.00012217,"INCLINATION":97.2846,"RA_OF_ASC_NODE":115.8769,"ARG_OF_PERICENTER":104.1418,"MEAN_ANOMALY":265.1056,"EPHEMERIS_TYPE":0,"CLASSIFICATION_TYPE":"U","NORAD_CAT_ID":68163,"ELEMENT_SET_NO":999,"REV_AT_EPOCH":489,"BSTAR":0.00015978648,"MEAN_MOTION_DOT":0.00023797,"MEAN_MOTION_DDOT":0},{"OBJECT_NAME":"STARLINK-37002","OBJECT_ID":"2026-049Y","EPOCH":"2026-04-05T07:13:04.163232","MEAN_MOTION":15.8089785,"ECCENTRICITY":9.741e-5,"INCLINATION":97.2859,"RA_OF_ASC_NODE":115.9559,"ARG_OF_PERICENTER":96.4324,"MEAN_ANOMALY":263.7055,"EPHEMERIS_TYPE":0,"CLASSIFICATION_TYPE":"U","NORAD_CAT_ID":68164,"ELEMENT_SET_NO":999,"REV_AT_EPOCH":361,"BSTAR":0.0011253748,"MEAN_MOTION_DOT":0.00221818,"MEAN_MOTION_DDOT":0}]
