STARLINK-36992          
1 68149U 26049H   26095.24721193  .00246521  00000+0  12476-2 0  9991
2 68149  97.2851 115.8759 0000911  62.0511 298.0849 15.80887344  3601
STARLINK-37060          
1 68150U 26049J   26095.30976023  .00277964  00000+0  13996-2 0  9997
2 68150  97.2850 115.9442 0001381 100.0808 260.0616 15.80917717  3616
STARLINK-37073          
1 68151U 26049K   26095.32429374  .00197801  00000+0  12935-2 0  9995
2 68151  97.2847 115.9239 0001410 115.7659 244.3752 15.75244708  3610
STARLINK-37049          
1 68152U 26049L   26095.25002315  .00001937  00000+0  13833-4 0  9994
2 68152  97.2846 115.8666 0001367 105.9960 239.2611 15.75219936  4893
STARLINK-37072          
1 68153U 26049M   26095.20076807  .00209879  00000+0  13715-2 0  9999
2 68153  97.2844 115.7860 0001045  88.8752 271.2633 15.75226109  3594
STARLINK-36241          
1 68154U 26049N   26095.21276466  .00171863  00000+0  11286-2 0  9996
2 68154  97.2844 115.7686 0001528 102.2040 257.9397 15.75219791  3595
STARLINK-37048          
1 68155U 26049P   26095.30450279  .00177888  00000+0  90824-3 0  9992
2 68155  97.2856 115.9507 0001430  89.7445 270.3988 15.80873359  3613
STARLINK-36313          
1 68156U 26049Q   26095.30534660 -.00654821  00000+0 -38012-2 0  9999
2 68156  97.2856 115.9495 0001461  99.5352 260.6081 15.80115314  3616
STARLINK-37064          
1 68157U 26049R   26095.11685298  .00291650  00000+0  14692-2 0  9996
2 68157  97.2852 115.7462 0000797  77.2772 282.8585 15.80872289  3587
STARLINK-37069          
1 68158U 26049S   26095.20923982  .00105572  00000+0  70007-3 0  9992
2 68158  97.2845 115.7735 0001732 110.7654 249.3797 15.75185625  3594
STARLINK-37053          
1 68159U 26049T   26095.25002315  .00044378  00000+0  29680-3 0  9993
2 68159  97.2848 115.8818 0001202 113.8667 267.3967 15.75193817  4896
STARLINK-36306          
1 68160U 26049U   26095.20535664  .00122086  00000+0  80793-3 0  9993
2 68160  97.2846 115.7792 0001052 108.5068 251.6311 15.75184749  3594
STARLINK-37057          
1 68161U 26049V   26095.25002315  .00001816  00000+0  13042-4 0  9992
2 68161  97.2849 115.8868 0001356  94.6360 298.6707 15.75195724  4899
STARLINK-37013          
1 68162U 26049W   26095.23519292  .00177398  00000+0  90666-3 0  9993
2 68162  97.2860 115.8912 0001602 105.7719 254.3726 15.80852421  3607
STARLINK-36958          
1 68163U 26049X   26095.25002315  .00023797  00000+0  15979-3 0  9996
2 68163  97.2846 115.8769 0001221 104.1418 265.1056 15.75216946  4896
STARLINK-37002          
1 68164U 26049Y   26095.30074263  .00221818  00000+0  11254-2 0  9999
2 68164  97.2859 115.9559 0000974  96.4324 263.7055 15.80897850  3619
